{"fetched_at":"2026-03-29T02:12:04Z","count":15717,"tles":[{"name":"SEMI-1P","line1":"1 66298U 25248F   26087.30387130  .00007280  00000+0  34299-3 0  9996","line2":"2 66298  45.3969 193.6037 0012239 288.1802  71.7751 15.20116286 22222","category":"Other"}]}