{
  "norad_id": 66298,
  "name": "SEMI-1P",
  "history": [
    {
      "epoch": "2026-03-28T07:17:34.480320Z",
      "apogee_km": 513.9144056666664,
      "perigee_km": 497.0646646339246,
      "latitude_deg": -3.794771460187143e-05,
      "longitude_deg": -101.5162501335418,
      "height_km": 502.9071369537863,
      "semi_major_axis_km": 6883.626535150295,
      "eccentricity": 0.0012239,
      "inclination_deg": 45.3969,
      "raan_deg": 193.6037,
      "arg_perigee_deg": 288.1802,
      "mean_anomaly_deg": 71.7751,
      "mean_motion_rev_day": 15.20116286
    }
  ]
}